FLOCK 4BE-29            
1 60509U 24149AT  26183.21207439  .00020351  00000+0  43825-3 0  9993
2 60509  97.3813 269.3156 0002416 209.1730 150.9384 15.44642244104731
TRANSPORTER-11 OBJECT AU
1 60510U 24149AU  26183.19357715  .00017197  00000+0  42359-3 0  9990
2 60510  97.3734 267.0374 0003053 212.9606 147.1450 15.40644890104629
FLOCK 4BE-2             
1 60511U 24149AV  26183.19627662  .00067289  00000+0  10189-2 0  9994
2 60511  97.3831 270.9354 0004796 205.7973 154.3043 15.54427591104834
FLOCK 4BE-13            
1 60512U 24149AW  26183.21039455  .00015705  00000+0  36651-3 0  9994
2 60512  97.3722 267.7813 0004067 196.0155 164.0964 15.42294190104680
FLOCK 4BE-27            
1 60513U 24149AX  26183.19209515  .00010919  00000+0  32681-3 0  9999
2 60513  97.3827 265.0524 0002731 232.7723 127.3271 15.34709682104447
FLOCK 4BE-9             
1 60514U 24149AY  26183.21997397  .00017937  00000+0  43302-3 0  9994
2 60514  97.3792 267.6412 0002438 211.3693 148.7409 15.41247304104633
FLOCK 4BE-6             
1 60516U 24149BA  26183.19581589  .00017433  00000+0  43863-3 0  9998
2 60516  97.3792 266.9464 0003045 217.0665 143.0371 15.39993419104583
FLOCK 4BE-14            
1 60517U 24149BB  26183.16548141  .00019955  00000+0  47769-3 0  9993
2 60517  97.3697 267.0657 0004056 221.2370 138.8571 15.41475325104631
FLOCK 4BE-1             
1 60518U 24149BC  26183.16571831  .00021496  00000+0  48720-3 0  9997
2 60518  97.3782 268.3976 0003817 220.0575 140.0391 15.43104379104683
FLOCK 4BE-28            
1 60519U 24149BD  26183.22218789  .00021213  00000+0  44447-3 0  9994
2 60519  97.3751 269.2260 0003880 213.5566 146.5438 15.45437395104764
IPERDRONE.0             
1 60520U 24149BE  26183.24230625  .00094173  00000+0  81106-3 0  9999
2 60520  97.3779 277.2205 0004283 193.8898 166.2246 15.68991104105271
TRANSPORTER-11 OBJECT BF
1 60521U 24149BF  26183.24546339  .00453442  83527-4  12399-2 0  9997
2 60521  97.3711 280.4429 0006821 232.0544 128.0115 15.94024805105473
CONNECTA IOT-2          
1 60522U 24149BG  26183.21563608  .00005375  00000+0  22413-3 0  9990
2 60522  97.3838 261.1342 0004815 270.2342  89.8344 15.24100709104181
CONNECTA IOT-4          
1 60524U 24149BJ  26183.19367168  .00023542  00000+0  54017-3 0  9993
2 60524  97.3800 267.7462 0004910 220.1205 139.9680 15.42713951104645
ORESAT0.5               
1 60525U 24149BK  26183.20560332  .00022883  00000+0  47559-3 0  9994
2 60525  97.3730 269.4410 0005070 209.2676 150.8290 15.45654190104795
DEIMOS                  
1 60526U 24149BL  26183.18149894  .00021782  00000+0  46678-3 0  9996
2 60526  97.3786 269.5489 0004933 215.3863 144.7058 15.44763345104760
CUAVA-2                 
1 60527U 24149BM  26183.19439938  .00013976  00000+0  39469-3 0  9995
2 60527  97.3727 264.7416 0005720 228.1197 131.9559 15.36463691104474
ERNST                   
1 60528U 24149BN  26183.18548299  .00015624  00000+0  39842-3 0  9993
2 60528  97.3811 267.0208 0004997 227.8429 132.2393 15.39600287104582
TORO                    
1 60530U 24149BQ  26183.15100109  .00002792  00000+0  25095-3 0  9994
2 60530  97.6779 257.5395 0001459  98.9397 261.1990 14.96476353102190
HYPSO-2                 
1 60531U 24149BR  26183.22186302  .00003789  00000+0  31864-3 0  9990
2 60531  97.6815 259.2622 0001540 117.4187 242.7192 14.98865203102309
LEMU NGE                
1 60532U 24149BS  26183.17792803  .00002152  00000+0  20189-3 0  9995
2 60532  97.6841 257.8348 0001298  52.5000 307.6339 14.95017774102191
LEMUR-2-STELLA          
1 60533U 24149BT  26183.17109079  .00013479  00000+0  78522-3 0  9991
2 60533  97.6740 265.6937 0001148 101.5384 258.5975 15.12128587102763
SATELIOT_2              
1 60534U 24149BU  26183.20562283  .00002445  00000+0  22070-3 0  9994
2 60534  97.6818 257.8879 0001602  89.1007 271.0398 14.96413730102213
NIGHTJAR                
1 60535U 24149BV  26183.21101097  .00003846  00000+0  32141-3 0  9994
2 60535  97.6827 259.7069 0001407 117.9868 242.1497 14.99097563145125
LEMUR-2-MARHISYAM       
1 60536U 24149BW  26183.22314779  .00011380  00000+0  67429-3 0  9998
2 60536  97.6885 266.2106 0003271  91.2695 268.8910 15.11554661102757
SATELIOT_4              
1 60537U 24149BX  26183.21340759  .00002411  00000+0  21608-3 0  9999
2 60537  97.6733 257.4124 0001899  31.8437 328.2899 14.96718700102227
PICO-02A021             
1 60538U 24149BY  26183.00953331  .00006109  00000+0  45358-3 0  9999
2 60538  97.6763 261.7153 0003653 350.5455   9.5701 15.03397024101964
ICEYE-X43               
1 60539U 24149BZ  26183.17478114  .00004276  00000+0  35086-3 0  9999
2 60539  97.6823 259.9372 0007655  39.0267 321.1508 14.99728540102368
HAWK-10A                
1 60540U 24149CA  26183.21369514  .00001981  00000+0  17915-3 0  9990
2 60540  97.6888 258.8668 0003943  43.0966 317.0564 14.96557847102233
UMBRA-09                
1 60541U 24149CB  26183.22605118  .00017753  00000+0  86271-3 0  9990
2 60541  97.6978 270.6933 0001425 227.0280 133.0834 15.18499893103000
