OBJECT_NAME,OBJECT_ID,EPOCH,MEAN_MOTION,ECCENTRICITY,INCLINATION,RA_OF_ASC_NODE,ARG_OF_PERICENTER,MEAN_ANOMALY,EPHEMERIS_TYPE,CLASSIFICATION_TYPE,NORAD_CAT_ID,ELEMENT_SET_NO,REV_AT_EPOCH,BSTAR,MEAN_MOTION_DOT,MEAN_MOTION_DDOT
FLOCK 4BE-29,2024-149AT,2026-07-02T05:05:23.227296,15.44642244,.00024168,97.3813,269.3156,209.1730,150.9384,0,U,60509,999,10473,.43824617E-3,.20351E-3,0
TRANSPORTER-11 OBJECT AU,2024-149AU,2026-07-02T04:38:45.065760,15.40644890,.00030533,97.3734,267.0374,212.9606,147.1450,0,U,60510,999,10462,.42358601E-3,.17197E-3,0
FLOCK 4BE-2,2024-149AV,2026-07-02T04:42:38.299968,15.54427591,.00047968,97.3831,270.9354,205.7973,154.3043,0,U,60511,999,10483,.10189288E-2,.67289E-3,0
FLOCK 4BE-13,2024-149AW,2026-07-02T05:02:58.089120,15.42294190,.00040674,97.3722,267.7813,196.0155,164.0964,0,U,60512,999,10468,.36651237E-3,.15705E-3,0
FLOCK 4BE-27,2024-149AX,2026-07-02T04:36:37.020960,15.34709682,.00027317,97.3827,265.0524,232.7723,127.3271,0,U,60513,999,10444,.32681455E-3,.10919E-3,0
FLOCK 4BE-9,2024-149AY,2026-07-02T05:16:45.751008,15.41247304,.00024382,97.3792,267.6412,211.3693,148.7409,0,U,60514,999,10463,.43301505E-3,.17937E-3,0
FLOCK 4BE-6,2024-149BA,2026-07-02T04:41:58.492896,15.39993419,.00030456,97.3792,266.9464,217.0665,143.0371,0,U,60516,999,10458,.43862849E-3,.17433E-3,0
FLOCK 4BE-14,2024-149BB,2026-07-02T03:58:17.593824,15.41475325,.0004056,97.3697,267.0657,221.2370,138.8571,0,U,60517,999,10463,.47768845E-3,.19955E-3,0
FLOCK 4BE-1,2024-149BC,2026-07-02T03:58:38.061984,15.43104379,.00038172,97.3782,268.3976,220.0575,140.0391,0,U,60518,999,10468,.48720463E-3,.21496E-3,0
FLOCK 4BE-28,2024-149BD,2026-07-02T05:19:57.033696,15.45437395,.00038807,97.3751,269.2260,213.5566,146.5438,0,U,60519,999,10476,.44447162E-3,.21213E-3,0
IPERDRONE.0,2024-149BE,2026-07-02T05:48:55.260000,15.68991104,.00042836,97.3779,277.2205,193.8898,166.2246,0,U,60520,999,10527,.81106146E-3,.94173E-3,0
TRANSPORTER-11 OBJECT BF,2024-149BF,2026-07-02T05:53:28.036896,15.94024805,.00068211,97.3711,280.4429,232.0544,128.0115,0,U,60521,999,10547,.12398795E-2,.453442E-2,.83526877E-4
CONNECTA IOT-2,2024-149BG,2026-07-02T05:10:30.957312,15.24100709,.00048153,97.3838,261.1342,270.2342,89.8344,0,U,60522,999,10418,.22412768E-3,.5375E-4,0
CONNECTA IOT-4,2024-149BJ,2026-07-02T04:38:53.233152,15.42713951,.00049101,97.3800,267.7462,220.1205,139.9680,0,U,60524,999,10464,.54016662E-3,.23542E-3,0
ORESAT0.5,2024-149BK,2026-07-02T04:56:04.126848,15.45654190,.00050705,97.3730,269.4410,209.2676,150.8290,0,U,60525,999,10479,.47559357E-3,.22883E-3,0
DEIMOS,2024-149BL,2026-07-02T04:21:21.508416,15.44763345,.00049339,97.3786,269.5489,215.3863,144.7058,0,U,60526,999,10476,.46677533E-3,.21782E-3,0
CUAVA-2,2024-149BM,2026-07-02T04:39:56.106432,15.36463691,.00057209,97.3727,264.7416,228.1197,131.9559,0,U,60527,999,10447,.39469022E-3,.13976E-3,0
ERNST,2024-149BN,2026-07-02T04:27:05.730336,15.39600287,.0004997,97.3811,267.0208,227.8429,132.2393,0,U,60528,999,10458,.39842067E-3,.15624E-3,0
TORO,2024-149BQ,2026-07-02T03:37:26.494176,14.96476353,.00014593,97.6779,257.5395,98.9397,261.1990,0,U,60530,999,10219,.25094529E-3,.2792E-4,0
HYPSO-2,2024-149BR,2026-07-02T05:19:28.964928,14.98865203,.000154,97.6815,259.2622,117.4187,242.7192,0,U,60531,999,10230,.31864351E-3,.3789E-4,0
LEMU NGE,2024-149BS,2026-07-02T04:16:12.981792,14.95017774,.00012981,97.6841,257.8348,52.5000,307.6339,0,U,60532,999,10219,.20189356E-3,.2152E-4,0
LEMUR-2-STELLA,2024-149BT,2026-07-02T04:06:22.244256,15.12128587,.00011481,97.6740,265.6937,101.5384,258.5975,0,U,60533,999,10276,.78521518E-3,.13479E-3,0
SATELIOT_2,2024-149BU,2026-07-02T04:56:05.812512,14.96413730,.00016029,97.6818,257.8879,89.1007,271.0398,0,U,60534,999,10221,.22070121E-3,.2445E-4,0
NIGHTJAR,2024-149BV,2026-07-02T05:03:51.347808,14.99097563,.00014071,97.6827,259.7069,117.9868,242.1497,0,U,60535,999,14512,.3214115E-3,.3846E-4,0
LEMUR-2-MARHISYAM,2024-149BW,2026-07-02T05:21:19.969056,15.11554661,.00032717,97.6885,266.2106,91.2695,268.8910,0,U,60536,999,10275,.67429009E-3,.1138E-3,0
SATELIOT_4,2024-149BX,2026-07-02T05:07:18.415776,14.96718700,.00018993,97.6733,257.4124,31.8437,328.2899,0,U,60537,999,10222,.21608101E-3,.2411E-4,0
PICO-02A021,2024-149BY,2026-07-02T00:13:43.677984,15.03397024,.00036534,97.6763,261.7153,350.5455,9.5701,0,U,60538,999,10196,.45357698E-3,.6109E-4,0
ICEYE-X43,2024-149BZ,2026-07-02T04:11:41.090496,14.99728540,.00076556,97.6823,259.9372,39.0267,321.1508,0,U,60539,999,10236,.35086265E-3,.4276E-4,0
HAWK-10A,2024-149CA,2026-07-02T05:07:43.260096,14.96557847,.00039439,97.6888,258.8668,43.0966,317.0564,0,U,60540,999,10223,.1791472E-3,.1981E-4,0
UMBRA-09,2024-149CB,2026-07-02T05:25:30.821952,15.18499893,.00014256,97.6978,270.6933,227.0280,133.0834,0,U,60541,999,10300,.86271452E-3,.17753E-3,0
